CSS (TIANHE)            
1 48274U 21035A   23354.47685265  .00036788  00000+0  38266-3 0  9995
2 48274  41.4702 101.1000 0006024  18.5615 341.5444 15.63830882150966
